OSCAR 7 (AO-7)          
1 07530U 74089B   26159.53937844 -.00000038  00000+0  52705-4 0  9993
2 07530 101.9901 172.6956 0012489 146.2398 340.8772 12.53697936359437
PHASE 3B (AO-10)        
1 14129U 83058B   26158.17238870 -.00000194  00000+0  00000+0 0  9992
2 14129  25.9048 221.2242 6014266 112.9115 319.2048  2.05872980295281
UOSAT 2 (UO-11)         
1 14781U 84021B   26159.42856248  .00001210  00000+0  12879-3 0  9991
2 14781  97.8053 125.1014 0006824 202.1533 157.9391 14.90762066255823
LUSAT (LO-19)           
1 20442U 90005G   26159.04225351  .00000130  00000+0  63300-4 0  9990
2 20442  98.8852 180.5956 0010666 229.5628 130.4627 14.34120497901087
EYESAT A (AO-27)        
1 22825U 93061C   26159.18945971  .00000096  00000+0  53477-4 0  9999
2 22825  98.6881 226.6059 0009383 123.0996 237.1089 14.30939932705717
ITAMSAT (IO-26)         
1 22826U 93061D   26159.45116818  .00000098  00000+0  53682-4 0  9990
2 22826  98.6829 226.7840 0010055 107.7729 252.4552 14.31366567706063
RADIO ROSTO (RS15)      
1 23439U 94085A   26159.51313999 -.00000035  00000+0  21155-3 0  9995
2 23439  64.8186 317.2448 0155684   5.4795 354.7789 11.27583632294921
JAS-2 (FO-29)           
1 24278U 96046B   26159.14317492 -.00000016  00000+0  16544-4 0  9993
2 24278  98.5249   9.2542 0350749 119.8386 243.8104 13.53273690471944
TECHSAT 1B (GO-32)      
1 25397U 98043D   26159.49473970  .00000072  00000+0  51083-4 0  9995
2 25397  99.0065 152.0342 0000566 186.1468 173.9703 14.24426770450090
ISS (ZARYA)             
1 25544U 98067A   26159.28821174  .00006674  00000+0  12624-3 0  9996
2 25544  51.6333 344.1431 0006937 146.3340 213.8090 15.49664883570378
PCSAT (NO-44)           
1 26931U 01043C   26159.49847844  .00000135  00000+0  81295-4 0  9997
2 26931  67.0512 266.7443 0006106 264.2347  95.8058 14.31953153289208
SAUDISAT 1C (SO-50)     
1 27607U 02058C   26159.32160852  .00001070  00000+0  14331-3 0  9999
2 27607  64.5503 156.4150 0075452 264.1037  95.1466 14.83027779263140
CUTE-1 (CO-55)          
1 27844U 03031E   26159.25615714  .00000298  00000+0  14775-3 0  9991
2 27844  98.6735 167.9273 0008945 204.6801 155.3951 14.24330308190408
CUBESAT XI-IV (CO-57)   
1 27848U 03031J   26158.95900341  .00000277  00000+0  14071-3 0  9990
2 27848  98.6766 167.3539 0008515 225.8669 134.1810 14.23616071190069
MOZHAETS 4 (RS22)       
1 27939U 03042A   26159.52420661  .00000877  00000+0  14338-3 0  9991
2 27939  98.3473 343.6383 0010200 300.7132 143.4020 14.73452406214271
CUBESAT XI-V            
1 28895U 05043F   26158.95798337  .00001615  00000+0  26180-3 0  9999
2 28895  98.2976 314.3867 0013088 231.5140 128.4894 14.72607812100390
CUTE-1.7+APD II (CO-65) 
1 32785U 08021C   26159.23300556  .00005519  00000+0  34936-3 0  9990
2 32785  97.8271 140.4661 0010356  64.8771 295.3530 15.09365894983840
SEEDS II (CO-66)        
1 32791U 08021J   26158.92960025  .00019726  00000+0  63151-3 0  9991
2 32791  97.7519 156.3875 0002464  31.6806 328.4582 15.32435639985877
YUBILEINY (RS30)        
1 32953U 08025A   26159.48731139  .00000017  00000+0  48714-4 0  9991
2 32953  82.5048   0.8529 0019234 333.4810  26.5284 12.43178883818612
KKS-1 (KISEKI)          
1 33499U 09002H   26159.48593559  .00001488  00000+0  18948-3 0  9993
2 33499  98.1193  81.7904 0007063 328.5178  31.5611 14.83102467934908
SWISSCUBE               
1 35932U 09051B   26159.00067640  .00001155  00000+0  23775-3 0  9991
2 35932  98.4042  66.7288 0005474 236.3791 123.6888 14.62465103887819
BEESAT-1                
1 35933U 09051C   26159.48451627  .00000912  00000+0  19297-3 0  9990
2 35933  98.3972  66.8746 0003903 251.6493 108.4283 14.61707016887917
ITUPSAT1                
1 35935U 09051E   26158.98819542  .00000873  00000+0  19037-3 0  9998
2 35935  98.4056  65.5723 0006074 268.4530  91.5974 14.60427678887397
XIWANG-1 (HOPE-1)       
1 36122U 09072B   26159.50398267 -.00000117  00000+0 -19076-3 0  9991
2 36122 100.4026 113.4750 0006793 253.9299 106.1066 13.16439073791862
O/OREOS (USA 219)       
1 37224U 10062C   26159.22211144  .00002414  00000+0  23355-3 0  9998
2 37224  71.9703 100.6454 0012377  82.7455 277.5122 14.93705882115301
JUGNU                   
1 37839U 11058B   26159.24405093  .00000426  00000+0  83200-4 0  9993
2 37839  19.9622   2.7589 0018522 337.7505 350.9134 14.13774450757752
SRMSAT                  
1 37841U 11058D   26159.20087963  .00000378  00000+0  61376-4 0  9990
2 37841  19.9708 113.8594 0011953 105.3030 101.4235 14.11573773756543
STRAND-1                
1 39090U 13009E   26159.49251567  .00000293  00000+0  11298-3 0  9993
2 39090  98.3920 339.9410 0007425 255.1117 104.9248 14.37158195695814
ZACUBE-1 (TSHEPISOSAT)  
1 39417U 13066B   26159.40866149  .00003601  00000+0  28140-3 0  9998
2 39417  97.8094 121.6980 0040004 278.5846  81.0846 15.01133786679417
GOMX-1                  
1 39430U 13066Q   26159.46989822  .00002580  00000+0  39010-3 0  9996
2 39430  97.6493   0.4824 0130120 105.2255 256.3382 14.69429117668636
