OBJECT_NAME,OBJECT_ID,EPOCH,MEAN_MOTION,ECCENTRICITY,INCLINATION,RA_OF_ASC_NODE,ARG_OF_PERICENTER,MEAN_ANOMALY,EPHEMERIS_TYPE,CLASSIFICATION_TYPE,NORAD_CAT_ID,ELEMENT_SET_NO,REV_AT_EPOCH,BSTAR,MEAN_MOTION_DOT,MEAN_MOTION_DDOT
OSCAR 7 (AO-7),1974-089B,2026-06-08T12:56:42.297216,12.53697936,.0012489,101.9901,172.6956,146.2398,340.8772,0,U,7530,999,35943,.52705E-4,-.38E-6,0
PHASE 3B (AO-10),1983-058B,2026-06-07T04:08:14.383680,2.05872980,.60142661,25.9048,221.2242,112.9115,319.2048,0,U,14129,999,29528,0,-.194E-5,0
UOSAT 2 (UO-11),1984-021B,2026-06-08T10:17:07.798272,14.90762066,.0006824,97.8053,125.1014,202.1533,157.9391,0,U,14781,999,25582,.12879E-3,.121E-4,0
LUSAT (LO-19),1990-005G,2026-06-08T01:00:50.703264,14.34120497,.00106669,98.8852,180.5956,229.5628,130.4627,0,U,20442,999,90108,.63300186E-4,.13E-5,0
EYESAT A (AO-27),1993-061C,2026-06-08T04:32:49.318944,14.30939932,.0009383,98.6881,226.6059,123.0996,237.1089,0,U,22825,999,70571,.53477E-4,.96E-6,0
ITAMSAT (IO-26),1993-061D,2026-06-08T10:49:40.930752,14.31366567,.0010055,98.6829,226.7840,107.7729,252.4552,0,U,22826,999,70606,.53682E-4,.98E-6,0
RADIO ROSTO (RS15),1994-085A,2026-06-08T12:18:55.295136,11.27583632,.0155684,64.8186,317.2448,5.4795,354.7789,0,U,23439,999,29492,.21155E-3,-.35E-6,0
JAS-2 (FO-29),1996-046B,2026-06-08T03:26:10.313088,13.53273690,.03507499,98.5249,9.2542,119.8386,243.8104,0,U,24278,999,47194,.16543932E-4,-.16E-6,0
TECHSAT 1B (GO-32),1998-043D,2026-06-08T11:52:25.510080,14.24426770,.0000566,99.0065,152.0342,186.1468,173.9703,0,U,25397,999,45009,.51083E-4,.72E-6,0
ISS (ZARYA),1998-067A,2026-06-08T06:55:01.494336,15.49664883,.0006937,51.6333,344.1431,146.3340,213.8090,0,U,25544,999,57037,.12624E-3,.6674E-4,0
PCSAT (NO-44),2001-043C,2026-06-08T11:57:48.537216,14.31953153,.0006106,67.0512,266.7443,264.2347,95.8058,0,U,26931,999,28920,.81295E-4,.135E-5,0
SAUDISAT 1C (SO-50),2002-058C,2026-06-08T07:43:06.976128,14.83027779,.0075452,64.5503,156.4150,264.1037,95.1466,0,U,27607,999,26314,.14331E-3,.107E-4,0
CUTE-1 (CO-55),2003-031E,2026-06-08T06:08:51.976896,14.24330308,.0008945,98.6735,167.9273,204.6801,155.3951,0,U,27844,999,19040,.14775E-3,.298E-5,0
CUBESAT XI-IV (CO-57),2003-031J,2026-06-07T23:00:57.894624,14.23616071,.00085151,98.6766,167.3539,225.8669,134.1810,0,U,27848,999,19006,.14070546E-3,.277E-5,0
MOZHAETS 4 (RS22),2003-042A,2026-06-08T12:34:51.451104,14.73452406,.00102,98.3473,343.6383,300.7132,143.4020,0,U,27939,999,21427,.14338E-3,.877E-5,0
CUBESAT XI-V,2005-043F,2026-06-07T22:59:29.763168,14.72607812,.00130883,98.2976,314.3867,231.5140,128.4894,0,U,28895,999,10039,.26180301E-3,.1615E-4,0
CUTE-1.7+APD II (CO-65),2008-021C,2026-06-08T05:35:31.680384,15.09365894,.00103561,97.8271,140.4661,64.8771,295.3530,0,U,32785,999,98384,.34936164E-3,.5519E-4,0
SEEDS II (CO-66),2008-021J,2026-06-07T22:18:37.461600,15.32435639,.00024648,97.7519,156.3875,31.6806,328.4582,0,U,32791,999,98587,.63151099E-3,.19726E-3,0
YUBILEINY (RS30),2008-025A,2026-06-08T11:41:43.704096,12.43178883,.0019234,82.5048,0.8529,333.4810,26.5284,0,U,32953,999,81861,.48714E-4,.17E-6,0
KKS-1 (KISEKI),2009-002H,2026-06-08T11:39:44.834976,14.83102467,.0007063,98.1193,81.7904,328.5178,31.5611,0,U,33499,999,93490,.18948E-3,.1488E-4,0
SWISSCUBE,2009-051B,2026-06-08T00:00:58.440960,14.62465103,.00054748,98.4042,66.7288,236.3791,123.6888,0,U,35932,999,88781,.23775073E-3,.1155E-4,0
BEESAT-1,2009-051C,2026-06-08T11:37:42.205728,14.61707016,.0003903,98.3972,66.8746,251.6493,108.4283,0,U,35933,999,88791,.19297E-3,.912E-5,0
ITUPSAT1,2009-051E,2026-06-07T23:43:00.084288,14.60427678,.00060745,98.4056,65.5723,268.4530,91.5974,0,U,35935,999,88739,.1903704E-3,.873E-5,0
XIWANG-1 (HOPE-1),2009-072B,2026-06-08T12:05:44.102688,13.16439073,.0006793,100.4026,113.4750,253.9299,106.1066,0,U,36122,999,79186,-.19076E-3,-.117E-5,0
O/OREOS (USA 219),2010-062C,2026-06-08T05:19:50.428416,14.93705882,.0012377,71.9703,100.6454,82.7455,277.5122,0,U,37224,999,11530,.23355E-3,.2414E-4,0
JUGNU,2011-058B,2026-06-08T05:51:26.000352,14.13774450,.00185229,19.9622,2.7589,337.7505,350.9134,0,U,37839,999,75775,.83199979E-4,.426E-5,0
SRMSAT,2011-058D,2026-06-08T04:49:16.000032,14.11573773,.00119531,19.9708,113.8594,105.3030,101.4235,0,U,37841,999,75654,.61376452E-4,.378E-5,0
STRAND-1,2013-009E,2026-06-08T11:49:13.353888,14.37158195,.0007425,98.3920,339.9410,255.1117,104.9248,0,U,39090,999,69581,.11298E-3,.293E-5,0
ZACUBE-1 (TSHEPISOSAT),2013-066B,2026-06-08T09:48:28.352736,15.01133786,.0040004,97.8094,121.6980,278.5846,81.0846,0,U,39417,999,67941,.2814E-3,.3601E-4,0
GOMX-1,2013-066Q,2026-06-08T11:16:39.206208,14.69429117,.013012,97.6493,0.4824,105.2255,256.3382,0,U,39430,999,66863,.3901E-3,.258E-4,0
